[
    {
        "Altitude(m)": 569029.3518051847,
        "Argument of Periapsis(deg)": 0.026491964442854003,
        "Eccentricity": 0.0,
        "Inclination(deg)": 53.0,
        "Latitude(deg)": -46.07374846878676,
        "Longitude(deg)": -132.10041587708494,
        "Mean Anomaly(deg)": 244.00277147031025,
        "RAAN(deg)": 99.96057347411208,
        "Satellite Name": "Starlink Shell 1 452",
        "Satellite Number": 452,
        "Semi-Major Axis(m)": 6931778.249405717,
        "Time(s)": 760
    },
    {
        "Altitude(m)": 569156.4024613977,
        "Argument of Periapsis(deg)": 0.02684054292236524,
        "Eccentricity": 0.0,
        "Inclination(deg)": 53.0,
        "Latitude(deg)": -46.38506259577059,
        "Longitude(deg)": -131.35995294643124,
        "Mean Anomaly(deg)": 244.62960267386703,
        "RAAN(deg)": 99.9600547040346,
        "Satellite Name": "Starlink Shell 1 452",
        "Satellite Number": 452,
        "Semi-Major Axis(m)": 6931778.249405717,
        "Time(s)": 770
    },
    {
        "Altitude(m)": 569281.0409040175,
        "Argument of Periapsis(deg)": 0.027189121401876473,
        "Eccentricity": 0.0,
        "Inclination(deg)": 53.0,
        "Latitude(deg)": -46.69095185149651,
        "Longitude(deg)": -130.61065088724013,
        "Mean Anomaly(deg)": 245.25643387742375,
        "RAAN(deg)": 99.95953593395713,
        "Satellite Name": "Starlink Shell 1 452",
        "Satellite Number": 452,
        "Semi-Major Axis(m)": 6931778.249405717,
        "Time(s)": 780
    },
    {
        "Altitude(m)": 569403.2178528785,
        "Argument of Periapsis(deg)": 0.02753769988138771,
        "Eccentricity": 0.0,
        "Inclination(deg)": 53.0,
        "Latitude(deg)": -46.99129802667497,
        "Longitude(deg)": -129.8524736645187,
        "Mean Anomaly(deg)": 245.88326508098052,
        "RAAN(deg)": 99.95901716387965,
        "Satellite Name": "Starlink Shell 1 452",
        "Satellite Number": 452,
        "Semi-Major Axis(m)": 6931778.249405717,
        "Time(s)": 790
    },
    {
        "Altitude(m)": 569522.8849736982,
        "Argument of Periapsis(deg)": 0.02788627836089895,
        "Eccentricity": 0.0,
        "Inclination(deg)": 53.0,
        "Latitude(deg)": -47.28598181648256,
        "Longitude(deg)": -129.08539451155403,
        "Mean Anomaly(deg)": 246.5100962845372,
        "RAAN(deg)": 99.95849839380217,
        "Satellite Name": "Starlink Shell 1 452",
        "Satellite Number": 452,
        "Semi-Major Axis(m)": 6931778.249405717,
        "Time(s)": 800
    },
    {
        "Altitude(m)": 569639.9948992184,
        "Argument of Periapsis(deg)": 0.02823485684041019,
        "Eccentricity": 0.0,
        "Inclination(deg)": 53.0,
        "Latitude(deg)": -47.574882936343016,
        "Longitude(deg)": -128.3093959682452,
        "Mean Anomaly(deg)": 247.1369274880939,
        "RAAN(deg)": 99.9579796237247,
        "Satellite Name": "Starlink Shell 1 452",
        "Satellite Number": 452,
        "Semi-Major Axis(m)": 6931778.249405717,
        "Time(s)": 810
    },
    {
        "Altitude(m)": 569754.5012499595,
        "Argument of Periapsis(deg)": 0.028583435319921423,
        "Eccentricity": 0.0,
        "Inclination(deg)": 53.0,
        "Latitude(deg)": -47.85788024806574,
        "Longitude(deg)": -127.52446992390031,
        "Mean Anomaly(deg)": 247.76375869165068,
        "RAAN(deg)": 99.95746085364725,
        "Satellite Name": "Starlink Shell 1 452",
        "Satellite Number": 452,
        "Semi-Major Axis(m)": 6931778.249405717,
        "Time(s)": 820
    },
    {
        "Altitude(m)": 569866.3586544844,
        "Argument of Periapsis(deg)": 0.028932013799432665,
        "Eccentricity": 0.0,
        "Inclination(deg)": 53.0,
        "Latitude(deg)": -48.13485189658002,
        "Longitude(deg)": -126.73061917464065,
        "Mean Anomaly(deg)": 248.39058989520737,
        "RAAN(deg)": 99.95694208356976,
        "Satellite Name": "Starlink Shell 1 452",
        "Satellite Number": 452,
        "Semi-Major Axis(m)": 6931778.249405717,
        "Time(s)": 830
    },
    {
        "Altitude(m)": 569975.5227692592,
        "Argument of Periapsis(deg)": 0.029280592278943897,
        "Eccentricity": 0.0,
        "Inclination(deg)": 53.0,
        "Latitude(deg)": -48.40567545746049,
        "Longitude(deg)": -125.92785746663965,
        "Mean Anomaly(deg)": 249.01742109876403,
        "RAAN(deg)": 99.95642331349228,
        "Satellite Name": "Starlink Shell 1 452",
        "Satellite Number": 452,
        "Semi-Major Axis(m)": 6931778.249405717,
        "Time(s)": 840
    },
    {
        "Altitude(m)": 570081.950298005,
        "Argument of Periapsis(deg)": 0.029629170758455132,
        "Eccentricity": 0.0,
        "Inclination(deg)": 53.0,
        "Latitude(deg)": -48.67022809537845,
        "Longitude(deg)": -125.11620953476235,
        "Mean Anomaly(deg)": 249.6442523023208,
        "RAAN(deg)": 99.95590454341482,
        "Satellite Name": "Starlink Shell 1 452",
        "Satellite Number": 452,
        "Semi-Major Axis(m)": 6931778.249405717,
        "Time(s)": 850
    },
    {
        "Altitude(m)": 570185.5990106197,
        "Argument of Periapsis(deg)": 0.02997774923796637,
        "Eccentricity": 0.0,
        "Inclination(deg)": 53.0,
        "Latitude(deg)": -48.92838673354876,
        "Longitude(deg)": -124.29571281398644,
        "Mean Anomaly(deg)": 250.2710835058775,
        "RAAN(deg)": 99.95538577333734,
        "Satellite Name": "Starlink Shell 1 452",
        "Satellite Number": 452,
        "Semi-Major Axis(m)": 6931778.249405717,
        "Time(s)": 860
    },
    {
        "Altitude(m)": 570286.4277616005,
        "Argument of Periapsis(deg)": 0.030326327717477602,
        "Eccentricity": 0.0,
        "Inclination(deg)": 53.0,
        "Latitude(deg)": -49.180028234183084,
        "Longitude(deg)": -123.46641661729892,
        "Mean Anomaly(deg)": 250.8979147094342,
        "RAAN(deg)": 99.95486700325986,
        "Satellite Name": "Starlink Shell 1 452",
        "Satellite Number": 452,
        "Semi-Major Axis(m)": 6931778.249405717,
        "Time(s)": 870
    },
    {
        "Altitude(m)": 570384.3965079936,
        "Argument of Periapsis(deg)": 0.030674906196988847,
        "Eccentricity": 0.0,
        "Inclination(deg)": 53.0,
        "Latitude(deg)": -49.425029589867485,
        "Longitude(deg)": -122.62838381885987,
        "Mean Anomaly(deg)": 251.5247459129909,
        "RAAN(deg)": 99.95434823318239,
        "Satellite Name": "Starlink Shell 1 452",
        "Satellite Number": 452,
        "Semi-Major Axis(m)": 6931778.249405717,
        "Time(s)": 880
    },
    {
        "Altitude(m)": 570479.4663268577,
        "Argument of Periapsis(deg)": 0.031023484676500086,
        "Eccentricity": 0.0,
        "Inclination(deg)": 53.0,
        "Latitude(deg)": -49.663268125713884,
        "Longitude(deg)": -121.78169083561944,
        "Mean Anomaly(deg)": 252.15157711654766,
        "RAAN(deg)": 99.95382946310492,
        "Satellite Name": "Starlink Shell 1 452",
        "Satellite Number": 452,
        "Semi-Major Axis(m)": 6931778.249405717,
        "Time(s)": 890
    },
    {
        "Altitude(m)": 570571.5994322232,
        "Argument of Periapsis(deg)": 0.03137206315601132,
        "Eccentricity": 0.0,
        "Inclination(deg)": 53.0,
        "Latitude(deg)": -49.89462171203306,
        "Longitude(deg)": -120.92642758377096,
        "Mean Anomaly(deg)": 252.77840832010435,
        "RAAN(deg)": 99.95331069302745,
        "Satellite Name": "Starlink Shell 1 452",
        "Satellite Number": 452,
        "Semi-Major Axis(m)": 6931778.249405717,
        "Time(s)": 900
    },
    {
        "Altitude(m)": 570660.759191542,
        "Argument of Periapsis(deg)": 0.03172064163552255,
        "Eccentricity": 0.0,
        "Inclination(deg)": 53.0,
        "Latitude(deg)": -50.11896898718368,
        "Longitude(deg)": -120.06269891813047,
        "Mean Anomaly(deg)": 253.40523952366107,
        "RAAN(deg)": 99.95279192294998,
        "Satellite Name": "Starlink Shell 1 452",
        "Satellite Number": 452,
        "Semi-Major Axis(m)": 6931778.249405717,
        "Time(s)": 910
    },
    {
        "Altitude(m)": 570746.9101416495,
        "Argument of Periapsis(deg)": 0.0320692201150338,
        "Eccentricity": 0.0,
        "Inclination(deg)": 53.0,
        "Latitude(deg)": -50.33618959015106,
        "Longitude(deg)": -119.19062452376117,
        "Mean Anomaly(deg)": 254.03207072721776,
        "RAAN(deg)": 99.95227315287251,
        "Satellite Name": "Starlink Shell 1 452",
        "Satellite Number": 452,
        "Semi-Major Axis(m)": 6931778.249405717,
        "Time(s)": 920
    },
    {
        "Altitude(m)": 570830.0180041841,
        "Argument of Periapsis(deg)": 0.032417798594545036,
        "Eccentricity": 0.0,
        "Inclination(deg)": 53.0,
        "Latitude(deg)": -50.54616440229946,
        "Longitude(deg)": -118.31033876767873,
        "Mean Anomaly(deg)": 254.65890193077448,
        "RAAN(deg)": 99.95175438279503,
        "Satellite Name": "Starlink Shell 1 452",
        "Satellite Number": 452,
        "Semi-Major Axis(m)": 6931778.249405717,
        "Time(s)": 930
    },
    {
        "Altitude(m)": 570910.0497005129,
        "Argument of Periapsis(deg)": 0.03276637707405627,
        "Eccentricity": 0.0,
        "Inclination(deg)": 53.0,
        "Latitude(deg)": -50.74877579762805,
        "Longitude(deg)": -117.42199201842271,
        "Mean Anomaly(deg)": 255.2857331343312,
        "RAAN(deg)": 99.95123561271755,
        "Satellite Name": "Starlink Shell 1 452",
        "Satellite Number": 452,
        "Semi-Major Axis(m)": 6931778.249405717,
        "Time(s)": 940
    }
]